#dP2024  9  9  0  0  0.00000000      96 __u+U IGS20 FIT  IAC
## 2331  86400.00000000   900.00000000 60562 0.0000000000000
+   54   G01G02G03G04G05G06G07G08G09G10G11G12G13G14G15G16G17
+        G18G19G20G21G22G23G24G25G26G27G28G29G30G31G32R01R02
+        R03R04R05R07R08R09R11R12R14R15R16R17R18R19R20R21R22
+        R24R25R26  0  0  0  0  0  0  0  0  0  0  0  0  0  0
+          0  0  0  0  0  0  0  0  0  0  0  0  0  0  0  0  0
++         3  6  4  5  5  7  6  6  6  6  8  6  6  5  5  6  5
++         6  5  7  5  6  6  5  5  6  5  6  6  5  6  5  6  7
++         6  6  7  6  6  7  6  6  6  6  6  8  5  7  7  6  6
++         6  6  5  0  0  0  0  0  0  0  0  0  0  0  0  0  0
++         0  0  0  0  0  0  0  0  0  0  0  0  0  0  0  0  0
%c M  cc GPS ccc cccc cccc cccc cccc ccccc ccccc ccccc ccccc
%c cc cc ccc ccc cccc cccc cccc cccc ccccc ccccc ccccc ccccc
%f  0.0000000  0.000000000  0.00000000000  0.000000000000000
%f  0.0000000  0.000000000  0.00000000000  0.000000000000000
%i    0    0    0    0      0      0      0      0         0
%i    0    0    0    0      0      0      0      0         0
/* INFORMATION & ANALYSIS CENTER (IAC)      ULTRA-RAPID DATA
/* S/V CLOCKS ARE ALIGNED TO GNSS TIME                      
/* G:C1WC2W R:C1PC2P E:C1XC5X C:C2IC6I J:C1CC2S             
/* PCV:IGS20_2317 OL/AL:FES2004  NONE     YN ORB:CoN CLK:CoN
*  2024 09 09 22 30  0.00000000
PG01   8256.364940 -21922.707619  11817.398827 999999.999999
PG02 -22064.567654 -13890.699812  -5432.473944   -361.404745
PG03 -12313.064110 -14759.969031  18212.071192    532.019596
PG04 -17631.196538  -5357.633217  19194.549591    440.648637
PG05   5592.562107  25353.928821  -5605.215315   -186.060638
PG06 -10853.597822  10412.328440  21967.863301     41.766150
PG07 -24007.001586  -4777.179276 -10327.151671    -39.850248
PG08  -7653.058151 -13464.166689 -21676.967265    346.911696
PG09 -23164.756717   4825.123139  12031.185343    349.775693
PG10  10555.235554 -17623.194503 -16431.447278   -120.152318
PG11   4251.905438  18044.116360  19076.970453   -732.714816
PG12  10250.515520  18403.548317  15923.673799   -536.857054
PG13  -2188.838422  16439.922575 -20917.516883    675.611712
PG14 -13228.869633  13833.791814 -18275.287589    491.958279
PG15   9567.697517  12835.344366 -21709.372765    202.432825
PG16     94.593764 -26239.736095  -2311.781856   -185.340700
PG17 -22190.944698  14431.921102   3538.865765    631.503104
PG18  23501.604622   4222.317819 -11842.166338   -652.350564
PG19 -17349.092608  16485.478472  10896.226857    535.975329
PG20    780.752717  25912.217670   6200.482876    370.804145
PG21 -18761.649196 -16156.033784 -10518.730912    102.055544
PG22 -10025.108394  21276.144567 -12213.421343    -60.238807
PG23  14455.621823  -4113.675345 -21850.745025    316.601043
PG24  20396.808943  15425.404915  -8358.718885   -486.775770
PG25  15080.643971   6063.182776  20711.834791    499.594134
PG26   5474.564004 -23457.679842  10600.509925     82.451232
PG27   4061.123149 -18178.962605 -19061.013563    -33.777297
PG28  12924.857351  -9853.589823  20995.929869   -405.224951
PG29  22466.377038   -456.531773  14216.880847   -578.888952
PG30 -18841.727918   4831.698601 -18046.238039   -324.305323
PG31   1030.531353 -16293.034901  20647.687162   -224.888555
PG32  20581.707425 -16144.962763   4137.087701   -598.659025
PR01  15254.664829  -4921.882637 -19850.882962     97.261378
PR02  17527.247143 -17349.120554  -6334.840750    -24.583432
PR03   9637.302116 -20853.485295  11058.273011    107.246643
PR04  -2849.174260 -12715.067078  21947.518385    253.929726
PR05 -14124.121338   2041.863939  21154.203773    137.420587
PR07  -9394.099680  20784.856321 -11442.810971     90.576028
PR08   3160.274791  12617.454109 -21896.457985     -6.387258
PR09  -8149.815569   8982.345618 -22407.770865    208.237149
PR11  10816.765214  22987.633300   2188.118305     12.293103
PR12  13945.176711   9857.100858  18981.280739     44.655504
PR14  -2320.887845 -21771.253046  13123.650733     26.909814
PR15 -11329.748226 -22529.066368  -3850.150720     76.034294
PR16 -13881.953409 -10084.915722 -18876.202408     28.990143
PR17   2470.874574 -10368.656069 -23165.136373    120.575425
PR18 -14825.875248 -10519.188761 -17895.365033    161.263289
PR19 -23959.826556  -6932.657348  -5303.011969   -290.790656
PR20 -20240.528983   3071.987071  15246.089927   -118.860407
PR21  -3214.775884  10151.134171  23179.247416   -133.115741
PR22  15522.538405  10999.943246  17017.179770     50.678990
PR24  19771.751239  -4550.981509 -15460.099975    -71.364299
PR25  -2436.577262  10668.546017  23047.502894   -100.830285
PR26   2100.918038  13686.985844 -21402.675707     21.901532
*  2024 09 09 22 45  0.00000000
PG01   8566.945143 -20382.538524  14094.883732 999999.999999
PG02 -21221.023983 -13774.785243  -8140.264930   -361.397800
PG03 -12300.210890 -16765.376177  16422.824163    532.031900
PG04 -15746.878742  -6603.935091  20394.797889    440.655079
PG05   5419.632377  25833.240121  -2774.927137   -186.061387
PG06 -13008.212659   9237.767098  21320.621383     41.742968
PG07 -24873.520314  -5482.527414  -7779.067394    -39.845903
PG08  -5626.973444 -14833.875635 -21361.444799    346.923624
PG09 -22030.335078   3795.460872  14294.687848    349.790154
PG10  10797.081095 -15605.672858 -18224.539183   -120.163189
PG11   2250.910978  17022.990555  20312.353412   -732.718836
PG12  10036.275653  20147.394875  13854.838003   -536.859333
PG13  -4302.204129  17322.178632 -19816.567744    675.613208
PG14 -13450.064637  11652.257914 -19604.145252    491.965978
PG15   7782.906807  14393.795328 -21421.612790    202.437150
PG16    385.887268 -26295.113404    568.742597   -185.331715
PG17 -22469.674222  14336.102349    693.575498    631.493848
PG18  24484.411742   4941.768665  -9327.167177   -652.352715
PG19 -18467.747507  16779.925269   8302.967211    535.979710
PG20    348.125118  25140.498297   8859.592568    370.803511
PG21 -17438.405862 -15798.086595 -12875.897481    102.054460
PG22 -10163.328822  19693.478462 -14445.244091    -60.241964
PG23  14681.946581  -1610.399240 -22045.941350    316.608636
PG24  19338.398153  15289.922640 -10845.619123   -486.775575
PG25  15170.596539   8449.741826  19828.552875    499.594249
PG26   5974.673050 -22126.002367  12938.980906     82.443654
PG27   5856.303123 -19185.209092 -17482.677304    -33.777446
PG28  15019.023472  -8781.831849  20057.879076   -405.237608
PG29  21012.988633    522.013029  16270.570575   -578.886392
PG30 -20540.797156   3768.230146 -16408.080871   -324.298992
PG31   3230.542509 -15202.409110  21271.038613   -224.887986
PG32  20967.564715 -16086.476839   1287.946014   -598.655875
PR01  13770.573883  -2863.221519 -21287.226469     97.262520
PR02  16819.873536 -16657.661911  -9370.028374    -24.583789
PR03  10212.515434 -21894.094998   8127.121740    107.246745
PR04  -1339.262471 -14867.708665  20700.759927    253.931137
PR05 -12471.649480    -67.570852  22260.337313    137.420809
PR07 -10000.619612  21873.725738  -8545.105201     90.577577
PR08   1658.150918  14788.447571 -20675.330629     -6.387659
PR09  -9368.855693   6468.748531 -22801.096891    208.240054
PR11  10977.461471  22990.888393  -1023.494013     12.292215
PR12  14935.992398  11837.505697  16989.138491     44.655682
PR14  -1660.415937 -20127.937037  15612.129145     26.909820
PR15 -11563.159713 -22732.204191   -663.045633     76.033956
PR16 -14890.360623 -12049.771312 -16851.572189     28.990253
PR17   5298.176379 -10078.297811 -22821.014368    120.577999
PR18 -12528.160842 -10114.708041 -19780.208007    161.265397
PR19 -23154.006755  -6596.186545  -8404.927905   -290.792295
PR20 -21968.903770   2981.392387  12651.305252   -118.860217
PR21  -6034.549318   9839.914009  22743.683295   -133.118702
PR22  13341.641221  10584.876151  19016.011577     50.670799
PR24  21528.955476  -4480.391487 -12932.196366    -71.365403
PR25  -5232.576027  10263.686600  22761.992527   -100.829651
PR26    666.591033  15807.202379 -19987.397641     21.911299
EOF
